<?xml version="1.0" encoding="UTF-8"?>
<gpx xmlns="http://www.topografix.com/GPX/1/1"
     xmlns:pgr="https://joshuaspence.github.io/pogo-utils/gpx/1"
     version="1.1"
     creator="https://github.com/joshuaspence/pogo-utils">
  <wpt lat="43.776737" lon="11.257311">
    <name>Florence</name>
    <extensions>
      <pgr:country>Italy</pgr:country>
    </extensions>
  </wpt>
  <wpt lat="41.914208" lon="12.484971">
    <name>Rome</name>
    <extensions>
      <pgr:country>Italy</pgr:country>
    </extensions>
  </wpt>
</gpx>
