<?xml version="1.0" encoding="UTF-8"?>
<gpx xmlns="http://www.topografix.com/GPX/1/1"
     xmlns:pgr="https://joshuaspence.github.io/pogo-utils/gpx/1"
     version="1.1"
     creator="https://github.com/joshuaspence/pogo-utils">
  <wpt lat="-37.815114" lon="144.966514">
    <name>Melbourne</name>
    <extensions>
      <pgr:country>Australia</pgr:country>
    </extensions>
  </wpt>
  <wpt lat="-33.861898" lon="151.210024">
    <name>Sydney</name>
    <extensions>
      <pgr:country>Australia</pgr:country>
    </extensions>
  </wpt>
</gpx>
