<?xml version="1.0" encoding="UTF-8"?>
<gpx xmlns="http://www.topografix.com/GPX/1/1"
     xmlns:pgr="https://joshuaspence.github.io/pogo-utils/gpx/1"
     version="1.1"
     creator="https://github.com/joshuaspence/pogo-utils">
  <wpt lat="-27.469580" lon="153.025357">
    <name>Brisbane</name>
    <extensions>
      <pgr:country>Australia</pgr:country>
    </extensions>
  </wpt>

  <wpt lat="-37.815114" lon="144.966514">
    <name>Melbourne</name>
    <extensions>
      <pgr:country>Australia</pgr:country>
    </extensions>
  </wpt>

  <wpt lat="-33.861898" lon="151.210024">
    <name>Sydney</name>
    <extensions>
      <pgr:country>Australia</pgr:country>
    </extensions>
  </wpt>

  <trk>
    <name>Melbourne Zoo</name>
    <extensions>
      <pgr:city>Melbourne, Victoria</pgr:city>
      <pgr:country>Australia</pgr:country>
    </extensions>
    <trkseg>
      <trkpt lat="-37.785519" lon="144.949761"/>
      <trkpt lat="-37.785073" lon="144.949484"/>
      <trkpt lat="-37.784552" lon="144.949162"/>
      <trkpt lat="-37.784165" lon="144.949412"/>
      <trkpt lat="-37.783901" lon="144.949396"/>
      <trkpt lat="-37.783631" lon="144.949646"/>
      <trkpt lat="-37.783069" lon="144.949495"/>
      <trkpt lat="-37.782722" lon="144.949929"/>
      <trkpt lat="-37.782367" lon="144.949292"/>
      <trkpt lat="-37.782104" lon="144.950676"/>
      <trkpt lat="-37.782239" lon="144.951353"/>
      <trkpt lat="-37.782111" lon="144.952181"/>
      <trkpt lat="-37.782505" lon="144.952462"/>
      <trkpt lat="-37.782940" lon="144.952285"/>
      <trkpt lat="-37.782822" lon="144.951789"/>
      <trkpt lat="-37.782965" lon="144.951513"/>
      <trkpt lat="-37.782823" lon="144.950805"/>
      <trkpt lat="-37.783273" lon="144.950654"/>
      <trkpt lat="-37.783735" lon="144.951172"/>
      <trkpt lat="-37.784268" lon="144.951151"/>
      <trkpt lat="-37.784203" lon="144.950629"/>
      <trkpt lat="-37.784650" lon="144.950008"/>
      <trkpt lat="-37.785208" lon="144.950451"/>
      <trkpt lat="-37.784984" lon="144.950744"/>
      <trkpt lat="-37.784848" lon="144.951113"/>
      <trkpt lat="-37.785109" lon="144.951829"/>
      <trkpt lat="-37.784783" lon="144.952228"/>
      <trkpt lat="-37.784997" lon="144.952500"/>
      <trkpt lat="-37.785325" lon="144.952862"/>
      <trkpt lat="-37.785372" lon="144.953294"/>
      <trkpt lat="-37.784955" lon="144.953271"/>
      <trkpt lat="-37.784976" lon="144.953631"/>
      <trkpt lat="-37.784669" lon="144.953444"/>
      <trkpt lat="-37.784448" lon="144.953969"/>
      <trkpt lat="-37.784163" lon="144.953859"/>
      <trkpt lat="-37.783580" lon="144.953736"/>
      <trkpt lat="-37.783940" lon="144.952999"/>
      <trkpt lat="-37.784344" lon="144.952490"/>
      <trkpt lat="-37.784293" lon="144.951898"/>
      <trkpt lat="-37.783969" lon="144.951890"/>
    </trkseg>
  </trk>

  <trk>
    <name>Royal Botanic Gardens</name>
    <extensions>
      <pgr:city>Sydney, New South Wales</pgr:city>
      <pgr:country>Australia</pgr:country>
      <pgr:variant>long</pgr:variant>
    </extensions>
    <trkseg>
      <trkpt lat="-33.858375" lon="151.214833"/>
      <trkpt lat="-33.858629" lon="151.215369"/>
      <trkpt lat="-33.858923" lon="151.215584"/>
      <trkpt lat="-33.860122" lon="151.214983"/>
      <trkpt lat="-33.860701" lon="151.215031"/>
      <trkpt lat="-33.860335" lon="151.215680"/>
      <trkpt lat="-33.859912" lon="151.215568"/>
      <trkpt lat="-33.859654" lon="151.216464"/>
      <trkpt lat="-33.859792" lon="151.216775"/>
      <trkpt lat="-33.860340" lon="151.216995"/>
      <trkpt lat="-33.860277" lon="151.216506"/>
      <trkpt lat="-33.861048" lon="151.215857"/>
      <trkpt lat="-33.861569" lon="151.216437"/>
      <trkpt lat="-33.862068" lon="151.216367"/>
      <trkpt lat="-33.862344" lon="151.216018"/>
      <trkpt lat="-33.862683" lon="151.216244"/>
      <trkpt lat="-33.862892" lon="151.216034"/>
      <trkpt lat="-33.863672" lon="151.216700"/>
      <trkpt lat="-33.863578" lon="151.217097"/>
      <trkpt lat="-33.863030" lon="151.217424"/>
      <trkpt lat="-33.863449" lon="151.217654"/>
      <trkpt lat="-33.864108" lon="151.217472"/>
      <trkpt lat="-33.864099" lon="151.217842"/>
      <trkpt lat="-33.864153" lon="151.218475"/>
      <trkpt lat="-33.864425" lon="151.219044"/>
      <trkpt lat="-33.863618" lon="151.218717"/>
      <trkpt lat="-33.863663" lon="151.219462"/>
      <trkpt lat="-33.863779" lon="151.219677"/>
      <trkpt lat="-33.863587" lon="151.219843"/>
      <trkpt lat="-33.863298" lon="151.220675"/>
      <trkpt lat="-33.863039" lon="151.220331"/>
      <trkpt lat="-33.862514" lon="151.220192"/>
      <trkpt lat="-33.862099" lon="151.220600"/>
      <trkpt lat="-33.861899" lon="151.220653"/>
      <trkpt lat="-33.861494" lon="151.221318"/>
      <trkpt lat="-33.859404" lon="151.221866"/>
      <trkpt lat="-33.859743" lon="151.222531"/>
      <trkpt lat="-33.860331" lon="151.222257"/>
      <trkpt lat="-33.861053" lon="151.222203"/>
      <trkpt lat="-33.862286" lon="151.222150"/>
      <trkpt lat="-33.863146" lon="151.221249"/>
      <trkpt lat="-33.864055" lon="151.221313"/>
      <trkpt lat="-33.863890" lon="151.220734"/>
      <trkpt lat="-33.864411" lon="151.220331"/>
      <trkpt lat="-33.864527" lon="151.219806"/>
      <trkpt lat="-33.865115" lon="151.219972"/>
      <trkpt lat="-33.865070" lon="151.219210"/>
      <trkpt lat="-33.865066" lon="151.218781"/>
      <trkpt lat="-33.864910" lon="151.217976"/>
      <trkpt lat="-33.865387" lon="151.217955"/>
      <trkpt lat="-33.865823" lon="151.218336"/>
      <trkpt lat="-33.865939" lon="151.219055"/>
      <trkpt lat="-33.866336" lon="151.218416"/>
      <trkpt lat="-33.867026" lon="151.217569"/>
      <trkpt lat="-33.866514" lon="151.217161"/>
      <trkpt lat="-33.865868" lon="151.217612"/>
      <trkpt lat="-33.865970" lon="151.217209"/>
      <trkpt lat="-33.865846" lon="151.216603"/>
      <trkpt lat="-33.866162" lon="151.216512"/>
      <trkpt lat="-33.866148" lon="151.215401"/>
      <trkpt lat="-33.865819" lon="151.215133"/>
      <trkpt lat="-33.865712" lon="151.214715"/>
      <trkpt lat="-33.865712" lon="151.214173"/>
      <trkpt lat="-33.865378" lon="151.214742"/>
      <trkpt lat="-33.865360" lon="151.215573"/>
      <trkpt lat="-33.865119" lon="151.215836"/>
      <trkpt lat="-33.865191" lon="151.216362"/>
      <trkpt lat="-33.864870" lon="151.216614"/>
      <trkpt lat="-33.864959" lon="151.216968"/>
      <trkpt lat="-33.864656" lon="151.216882"/>
      <trkpt lat="-33.864514" lon="151.215283"/>
      <trkpt lat="-33.864790" lon="151.214843"/>
      <trkpt lat="-33.865543" lon="151.213384"/>
      <trkpt lat="-33.865427" lon="151.212928"/>
      <trkpt lat="-33.865035" lon="151.212944"/>
      <trkpt lat="-33.864830" lon="151.213256"/>
      <trkpt lat="-33.864625" lon="151.213170"/>
      <trkpt lat="-33.864425" lon="151.213985"/>
      <trkpt lat="-33.864046" lon="151.215444"/>
      <trkpt lat="-33.863017" lon="151.215326"/>
      <trkpt lat="-33.863182" lon="151.215085"/>
      <trkpt lat="-33.863788" lon="151.214940"/>
      <trkpt lat="-33.863650" lon="151.214184"/>
      <trkpt lat="-33.863609" lon="151.213787"/>
      <trkpt lat="-33.863075" lon="151.213073"/>
      <trkpt lat="-33.862923" lon="151.214066"/>
      <trkpt lat="-33.861930" lon="151.214189"/>
      <trkpt lat="-33.861752" lon="151.214538"/>
      <trkpt lat="-33.861200" lon="151.213663"/>
      <trkpt lat="-33.860732" lon="151.214033"/>
      <trkpt lat="-33.860514" lon="151.213443"/>
      <trkpt lat="-33.858905" lon="151.214264"/>
      <trkpt lat="-33.858375" lon="151.214833"/>
    </trkseg>
  </trk>

  <trk>
    <name>Royal Botanic Gardens</name>
    <extensions>
      <pgr:city>Sydney, New South Wales</pgr:city>
      <pgr:country>Australia</pgr:country>
      <pgr:variant>short</pgr:variant>
    </extensions>
    <trkseg>
      <trkpt lat="-33.866319" lon="151.216784"/>
      <trkpt lat="-33.867018" lon="151.217565"/>
      <trkpt lat="-33.866287" lon="151.218426"/>
      <trkpt lat="-33.865793" lon="151.218345"/>
      <trkpt lat="-33.865959" lon="151.219050"/>
      <trkpt lat="-33.865066" lon="151.219212"/>
      <trkpt lat="-33.865032" lon="151.218796"/>
      <trkpt lat="-33.865337" lon="151.217951"/>
      <trkpt lat="-33.864913" lon="151.217992"/>
      <trkpt lat="-33.863667" lon="151.219477"/>
      <trkpt lat="-33.863593" lon="151.219795"/>
      <trkpt lat="-33.864123" lon="151.218456"/>
      <trkpt lat="-33.863778" lon="151.218507"/>
      <trkpt lat="-33.864081" lon="151.217894"/>
      <trkpt lat="-33.864074" lon="151.217520"/>
      <trkpt lat="-33.863427" lon="151.217715"/>
      <trkpt lat="-33.863006" lon="151.217364"/>
      <trkpt lat="-33.863519" lon="151.217155"/>
      <trkpt lat="-33.863666" lon="151.216703"/>
      <trkpt lat="-33.862909" lon="151.216092"/>
      <trkpt lat="-33.862676" lon="151.216264"/>
      <trkpt lat="-33.862057" lon="151.216412"/>
      <trkpt lat="-33.861579" lon="151.216445"/>
      <trkpt lat="-33.862310" lon="151.215999"/>
      <trkpt lat="-33.863022" lon="151.215349"/>
      <trkpt lat="-33.863180" lon="151.215098"/>
      <trkpt lat="-33.863498" lon="151.215384"/>
      <trkpt lat="-33.863757" lon="151.214941"/>
      <trkpt lat="-33.864005" lon="151.215495"/>
      <trkpt lat="-33.864488" lon="151.215267"/>
      <trkpt lat="-33.864754" lon="151.214882"/>
      <trkpt lat="-33.865342" lon="151.214737"/>
      <trkpt lat="-33.865684" lon="151.214164"/>
      <trkpt lat="-33.865701" lon="151.214733"/>
      <trkpt lat="-33.865828" lon="151.215136"/>
      <trkpt lat="-33.866142" lon="151.215423"/>
      <trkpt lat="-33.865321" lon="151.215581"/>
      <trkpt lat="-33.865113" lon="151.215850"/>
      <trkpt lat="-33.865177" lon="151.216319"/>
      <trkpt lat="-33.864891" lon="151.216605"/>
      <trkpt lat="-33.864666" lon="151.216838"/>
      <trkpt lat="-33.865396" lon="151.217061"/>
      <trkpt lat="-33.865860" lon="151.217618"/>
      <trkpt lat="-33.865974" lon="151.217228"/>
      <trkpt lat="-33.865830" lon="151.216616"/>
      <trkpt lat="-33.866164" lon="151.216515"/>
      <trkpt lat="-33.866319" lon="151.216784"/>
    </trkseg>
  </trk>

  <trk>
    <name>Town Hall</name>
    <extensions>
      <pgr:city>Sydney, New South Wales</pgr:city>
      <pgr:country>Australia</pgr:country>
    </extensions>
    <trkseg>
      <trkpt lat="-33.868881" lon="151.208312"/>
      <trkpt lat="-33.870745" lon="151.208207"/>
      <trkpt lat="-33.870782" lon="151.206921"/>
      <trkpt lat="-33.869950" lon="151.206921"/>
      <trkpt lat="-33.869962" lon="151.204646"/>
      <trkpt lat="-33.868757" lon="151.204556"/>
      <trkpt lat="-33.868720" lon="151.205260"/>
      <trkpt lat="-33.867701" lon="151.205140"/>
      <trkpt lat="-33.867639" lon="151.207055"/>
      <trkpt lat="-33.868732" lon="151.206891"/>
    </trkseg>
  </trk>

  <trk>
    <name>Wynyard</name>
    <extensions>
      <pgr:city>Sydney, New South Wales</pgr:city>
      <pgr:country>Australia</pgr:country>
    </extensions>
    <trkseg>
      <trkpt lat="-33.867671" lon="151.205910"/>
      <trkpt lat="-33.867625" lon="151.207046"/>
      <trkpt lat="-33.868711" lon="151.206897"/>
      <trkpt lat="-33.869069" lon="151.209700"/>
      <trkpt lat="-33.870765" lon="151.209528"/>
      <trkpt lat="-33.870798" lon="151.208220"/>
      <trkpt lat="-33.873107" lon="151.208161"/>
      <trkpt lat="-33.872952" lon="151.206977"/>
      <trkpt lat="-33.870805" lon="151.206920"/>
      <trkpt lat="-33.870824" lon="151.206294"/>
      <trkpt lat="-33.870902" lon="151.205472"/>
      <trkpt lat="-33.868698" lon="151.205245"/>
      <trkpt lat="-33.868679" lon="151.206006"/>
      <trkpt lat="-33.867671" lon="151.205910"/>
    </trkseg>
  </trk>
</gpx>
