<?xml version="1.0" encoding="UTF-8"?>
<gpx xmlns="http://www.topografix.com/GPX/1/1"
     xmlns:pgr="https://joshuaspence.github.io/pogo-utils/gpx/1"
     version="1.1"
     creator="https://github.com/joshuaspence/pogo-utils">
  <wpt lat="51.512369" lon="-0.119003">
    <name>London</name>
    <extensions>
      <pgr:country>England</pgr:country>
    </extensions>
  </wpt>

  <trk>
    <name>Chester Zoo</name>
    <extensions>
      <pgr:city>Chester, Cheshire</pgr:city>
      <pgr:country>England</pgr:country>
    </extensions>
    <trkseg>
      <trkpt lat="53.226575" lon="-2.887075"/>
      <trkpt lat="53.226077" lon="-2.886551"/>
      <trkpt lat="53.225660" lon="-2.887350"/>
      <trkpt lat="53.224931" lon="-2.886907"/>
      <trkpt lat="53.224291" lon="-2.886664"/>
      <trkpt lat="53.223589" lon="-2.886431"/>
      <trkpt lat="53.223186" lon="-2.886758"/>
      <trkpt lat="53.222733" lon="-2.885650"/>
      <trkpt lat="53.222448" lon="-2.885192"/>
      <trkpt lat="53.222663" lon="-2.884271"/>
      <trkpt lat="53.222055" lon="-2.884214"/>
      <trkpt lat="53.223547" lon="-2.885068"/>
      <trkpt lat="53.224311" lon="-2.885094"/>
      <trkpt lat="53.224957" lon="-2.883892"/>
      <trkpt lat="53.225348" lon="-2.883963"/>
      <trkpt lat="53.225393" lon="-2.884643"/>
      <trkpt lat="53.225822" lon="-2.884421"/>
      <trkpt lat="53.225988" lon="-2.885318"/>
      <trkpt lat="53.226225" lon="-2.883572"/>
      <trkpt lat="53.226462" lon="-2.883322"/>
      <trkpt lat="53.226625" lon="-2.883673"/>
      <trkpt lat="53.227035" lon="-2.883752"/>
      <trkpt lat="53.227609" lon="-2.884384"/>
      <trkpt lat="53.227827" lon="-2.884141"/>
      <trkpt lat="53.227644" lon="-2.881958"/>
      <trkpt lat="53.228043" lon="-2.881772"/>
      <trkpt lat="53.227360" lon="-2.881189"/>
      <trkpt lat="53.227030" lon="-2.881546"/>
      <trkpt lat="53.227691" lon="-2.880521"/>
      <trkpt lat="53.227849" lon="-2.879842"/>
      <trkpt lat="53.228266" lon="-2.880271"/>
      <trkpt lat="53.226890" lon="-2.879721"/>
      <trkpt lat="53.226421" lon="-2.879556"/>
      <trkpt lat="53.225294" lon="-2.879392"/>
      <trkpt lat="53.224987" lon="-2.879242"/>
      <trkpt lat="53.225092" lon="-2.880263"/>
      <trkpt lat="53.225559" lon="-2.881059"/>
      <trkpt lat="53.225440" lon="-2.882155"/>
      <trkpt lat="53.225060" lon="-2.882808"/>
      <trkpt lat="53.224650" lon="-2.883044"/>
      <trkpt lat="53.224266" lon="-2.880088"/>
      <trkpt lat="53.224386" lon="-2.879558"/>
      <trkpt lat="53.225333" lon="-2.888971"/>
      <trkpt lat="53.224722" lon="-2.889997"/>
      <trkpt lat="53.224695" lon="-2.890763"/>
    </trkseg>
  </trk>

  <trk>
    <name>City of London</name>
    <extensions>
      <pgr:city>London</pgr:city>
      <pgr:country>England</pgr:country>
    </extensions>
    <trkseg>
      <trkpt lat="51.512210" lon="-0.091490"/>
      <trkpt lat="51.512550" lon="-0.091230"/>
      <trkpt lat="51.512640" lon="-0.090830"/>
      <trkpt lat="51.512750" lon="-0.089940"/>
      <trkpt lat="51.513240" lon="-0.089590"/>
      <trkpt lat="51.513180" lon="-0.089290"/>
      <trkpt lat="51.512670" lon="-0.089060"/>
      <trkpt lat="51.512320" lon="-0.089000"/>
      <trkpt lat="51.512220" lon="-0.088760"/>
      <trkpt lat="51.512130" lon="-0.087980"/>
      <trkpt lat="51.512080" lon="-0.087170"/>
      <trkpt lat="51.512310" lon="-0.086380"/>
      <trkpt lat="51.512620" lon="-0.085560"/>
      <trkpt lat="51.512830" lon="-0.084810"/>
      <trkpt lat="51.513070" lon="-0.084720"/>
      <trkpt lat="51.513340" lon="-0.085130"/>
      <trkpt lat="51.513420" lon="-0.084220"/>
      <trkpt lat="51.513730" lon="-0.083400"/>
      <trkpt lat="51.513580" lon="-0.082660"/>
      <trkpt lat="51.513640" lon="-0.081970"/>
      <trkpt lat="51.513750" lon="-0.081630"/>
      <trkpt lat="51.513940" lon="-0.081390"/>
      <trkpt lat="51.513630" lon="-0.081270"/>
      <trkpt lat="51.514190" lon="-0.080380"/>
      <trkpt lat="51.514530" lon="-0.079900"/>
      <trkpt lat="51.514700" lon="-0.079740"/>
      <trkpt lat="51.514730" lon="-0.080470"/>
      <trkpt lat="51.514630" lon="-0.080750"/>
      <trkpt lat="51.514950" lon="-0.080790"/>
      <trkpt lat="51.514660" lon="-0.081730"/>
      <trkpt lat="51.514770" lon="-0.081990"/>
      <trkpt lat="51.514650" lon="-0.082390"/>
      <trkpt lat="51.515010" lon="-0.082610"/>
      <trkpt lat="51.514820" lon="-0.083210"/>
      <trkpt lat="51.514520" lon="-0.083700"/>
      <trkpt lat="51.514120" lon="-0.084030"/>
      <trkpt lat="51.514270" lon="-0.084960"/>
      <trkpt lat="51.514220" lon="-0.085670"/>
      <trkpt lat="51.514270" lon="-0.086300"/>
      <trkpt lat="51.514480" lon="-0.086460"/>
      <trkpt lat="51.514810" lon="-0.086860"/>
      <trkpt lat="51.515280" lon="-0.086690"/>
      <trkpt lat="51.515220" lon="-0.086230"/>
      <trkpt lat="51.515560" lon="-0.085440"/>
      <trkpt lat="51.515720" lon="-0.085260"/>
      <trkpt lat="51.515650" lon="-0.084490"/>
      <trkpt lat="51.515310" lon="-0.084000"/>
      <trkpt lat="51.514820" lon="-0.084410"/>
      <trkpt lat="51.515030" lon="-0.084800"/>
      <trkpt lat="51.516100" lon="-0.084170"/>
      <trkpt lat="51.516600" lon="-0.083930"/>
      <trkpt lat="51.516660" lon="-0.084580"/>
      <trkpt lat="51.516290" lon="-0.085460"/>
      <trkpt lat="51.516810" lon="-0.086050"/>
      <trkpt lat="51.517180" lon="-0.086580"/>
      <trkpt lat="51.517240" lon="-0.086880"/>
      <trkpt lat="51.516800" lon="-0.086880"/>
      <trkpt lat="51.517240" lon="-0.087630"/>
      <trkpt lat="51.517960" lon="-0.087340"/>
      <trkpt lat="51.517910" lon="-0.086770"/>
      <trkpt lat="51.518400" lon="-0.087820"/>
      <trkpt lat="51.518490" lon="-0.088200"/>
      <trkpt lat="51.518010" lon="-0.088210"/>
      <trkpt lat="51.517630" lon="-0.089420"/>
      <trkpt lat="51.517160" lon="-0.089600"/>
      <trkpt lat="51.516990" lon="-0.090440"/>
      <trkpt lat="51.516360" lon="-0.089940"/>
      <trkpt lat="51.515710" lon="-0.090240"/>
      <trkpt lat="51.515440" lon="-0.090110"/>
      <trkpt lat="51.515180" lon="-0.089400"/>
      <trkpt lat="51.514840" lon="-0.089260"/>
      <trkpt lat="51.514620" lon="-0.089640"/>
      <trkpt lat="51.514190" lon="-0.089420"/>
      <trkpt lat="51.514110" lon="-0.088480"/>
      <trkpt lat="51.513800" lon="-0.088510"/>
      <trkpt lat="51.513420" lon="-0.088430"/>
      <trkpt lat="51.513540" lon="-0.088040"/>
      <trkpt lat="51.513680" lon="-0.087730"/>
      <trkpt lat="51.513390" lon="-0.086740"/>
      <trkpt lat="51.513450" lon="-0.086400"/>
      <trkpt lat="51.514200" lon="-0.087020"/>
      <trkpt lat="51.514650" lon="-0.087780"/>
      <trkpt lat="51.514640" lon="-0.088770"/>
      <trkpt lat="51.515400" lon="-0.087550"/>
      <trkpt lat="51.516210" lon="-0.087850"/>
      <trkpt lat="51.516280" lon="-0.088580"/>
      <trkpt lat="51.516410" lon="-0.088540"/>
      <trkpt lat="51.516600" lon="-0.088910"/>
      <trkpt lat="51.516290" lon="-0.091160"/>
      <trkpt lat="51.515990" lon="-0.091220"/>
      <trkpt lat="51.515090" lon="-0.091140"/>
      <trkpt lat="51.515230" lon="-0.092160"/>
      <trkpt lat="51.515490" lon="-0.092560"/>
      <trkpt lat="51.515370" lon="-0.092990"/>
      <trkpt lat="51.515500" lon="-0.093340"/>
      <trkpt lat="51.515890" lon="-0.093740"/>
      <trkpt lat="51.515760" lon="-0.094370"/>
      <trkpt lat="51.516210" lon="-0.094950"/>
      <trkpt lat="51.516720" lon="-0.094940"/>
      <trkpt lat="51.516580" lon="-0.095560"/>
      <trkpt lat="51.516970" lon="-0.095650"/>
      <trkpt lat="51.517240" lon="-0.095380"/>
      <trkpt lat="51.517810" lon="-0.095340"/>
      <trkpt lat="51.517710" lon="-0.096260"/>
      <trkpt lat="51.517490" lon="-0.096610"/>
      <trkpt lat="51.517750" lon="-0.096950"/>
      <trkpt lat="51.518480" lon="-0.096860"/>
      <trkpt lat="51.518610" lon="-0.097220"/>
      <trkpt lat="51.519390" lon="-0.098140"/>
      <trkpt lat="51.519300" lon="-0.098880"/>
      <trkpt lat="51.519040" lon="-0.099820"/>
      <trkpt lat="51.518710" lon="-0.099800"/>
      <trkpt lat="51.518490" lon="-0.100130"/>
      <trkpt lat="51.518970" lon="-0.100440"/>
      <trkpt lat="51.518560" lon="-0.101150"/>
      <trkpt lat="51.518120" lon="-0.101350"/>
      <trkpt lat="51.517760" lon="-0.101160"/>
      <trkpt lat="51.517250" lon="-0.101570"/>
      <trkpt lat="51.516430" lon="-0.101770"/>
      <trkpt lat="51.516020" lon="-0.101170"/>
      <trkpt lat="51.515560" lon="-0.101760"/>
      <trkpt lat="51.515690" lon="-0.101990"/>
      <trkpt lat="51.516030" lon="-0.102410"/>
      <trkpt lat="51.516040" lon="-0.103230"/>
      <trkpt lat="51.516290" lon="-0.103610"/>
      <trkpt lat="51.516510" lon="-0.103250"/>
      <trkpt lat="51.516610" lon="-0.102660"/>
      <trkpt lat="51.517350" lon="-0.103010"/>
      <trkpt lat="51.517460" lon="-0.100120"/>
      <trkpt lat="51.517050" lon="-0.099810"/>
      <trkpt lat="51.517740" lon="-0.099020"/>
      <trkpt lat="51.518200" lon="-0.099190"/>
      <trkpt lat="51.517020" lon="-0.098100"/>
      <trkpt lat="51.516780" lon="-0.097870"/>
      <trkpt lat="51.516640" lon="-0.098460"/>
      <trkpt lat="51.516130" lon="-0.098790"/>
      <trkpt lat="51.515850" lon="-0.099400"/>
      <trkpt lat="51.515780" lon="-0.100010"/>
      <trkpt lat="51.515430" lon="-0.100890"/>
      <trkpt lat="51.514650" lon="-0.100870"/>
      <trkpt lat="51.514280" lon="-0.100550"/>
      <trkpt lat="51.513830" lon="-0.100480"/>
      <trkpt lat="51.513620" lon="-0.099590"/>
      <trkpt lat="51.514120" lon="-0.099410"/>
      <trkpt lat="51.514550" lon="-0.099300"/>
      <trkpt lat="51.514630" lon="-0.099040"/>
      <trkpt lat="51.515030" lon="-0.099600"/>
      <trkpt lat="51.515490" lon="-0.098920"/>
      <trkpt lat="51.515290" lon="-0.098020"/>
      <trkpt lat="51.514940" lon="-0.097550"/>
      <trkpt lat="51.514730" lon="-0.097610"/>
      <trkpt lat="51.514220" lon="-0.097720"/>
      <trkpt lat="51.514210" lon="-0.098380"/>
      <trkpt lat="51.513470" lon="-0.097930"/>
      <trkpt lat="51.513340" lon="-0.098280"/>
      <trkpt lat="51.512870" lon="-0.098130"/>
      <trkpt lat="51.512820" lon="-0.098470"/>
      <trkpt lat="51.513060" lon="-0.099030"/>
      <trkpt lat="51.512950" lon="-0.100020"/>
      <trkpt lat="51.513150" lon="-0.100230"/>
      <trkpt lat="51.513080" lon="-0.100550"/>
      <trkpt lat="51.513140" lon="-0.101360"/>
      <trkpt lat="51.512670" lon="-0.101390"/>
      <trkpt lat="51.512810" lon="-0.102130"/>
      <trkpt lat="51.513040" lon="-0.102260"/>
      <trkpt lat="51.513420" lon="-0.102790"/>
      <trkpt lat="51.513330" lon="-0.103750"/>
      <trkpt lat="51.513230" lon="-0.104690"/>
      <trkpt lat="51.513550" lon="-0.105180"/>
      <trkpt lat="51.514100" lon="-0.105190"/>
      <trkpt lat="51.514270" lon="-0.104650"/>
      <trkpt lat="51.514460" lon="-0.104740"/>
      <trkpt lat="51.514050" lon="-0.104070"/>
      <trkpt lat="51.513980" lon="-0.102070"/>
      <trkpt lat="51.513930" lon="-0.101720"/>
      <trkpt lat="51.514310" lon="-0.101460"/>
      <trkpt lat="51.515250" lon="-0.102160"/>
      <trkpt lat="51.515540" lon="-0.103310"/>
      <trkpt lat="51.515410" lon="-0.104880"/>
      <trkpt lat="51.512820" lon="-0.105660"/>
      <trkpt lat="51.512550" lon="-0.104850"/>
      <trkpt lat="51.512690" lon="-0.104090"/>
      <trkpt lat="51.512810" lon="-0.103280"/>
      <trkpt lat="51.512140" lon="-0.103380"/>
      <trkpt lat="51.512020" lon="-0.103770"/>
      <trkpt lat="51.511910" lon="-0.104430"/>
      <trkpt lat="51.511640" lon="-0.104650"/>
      <trkpt lat="51.511540" lon="-0.103890"/>
      <trkpt lat="51.511040" lon="-0.104440"/>
      <trkpt lat="51.510810" lon="-0.105330"/>
      <trkpt lat="51.511270" lon="-0.105470"/>
      <trkpt lat="51.511240" lon="-0.102880"/>
      <trkpt lat="51.510890" lon="-0.102150"/>
      <trkpt lat="51.510820" lon="-0.101330"/>
      <trkpt lat="51.510930" lon="-0.101060"/>
      <trkpt lat="51.510870" lon="-0.099480"/>
      <trkpt lat="51.510940" lon="-0.098400"/>
      <trkpt lat="51.510620" lon="-0.097860"/>
      <trkpt lat="51.510430" lon="-0.098480"/>
      <trkpt lat="51.509730" lon="-0.098510"/>
      <trkpt lat="51.510830" lon="-0.096990"/>
      <trkpt lat="51.511350" lon="-0.096780"/>
      <trkpt lat="51.511430" lon="-0.097980"/>
      <trkpt lat="51.511720" lon="-0.097950"/>
      <trkpt lat="51.512050" lon="-0.098790"/>
      <trkpt lat="51.512090" lon="-0.099750"/>
      <trkpt lat="51.512180" lon="-0.100820"/>
      <trkpt lat="51.512010" lon="-0.101910"/>
      <trkpt lat="51.512170" lon="-0.097080"/>
      <trkpt lat="51.512940" lon="-0.097240"/>
      <trkpt lat="51.513240" lon="-0.097170"/>
      <trkpt lat="51.513460" lon="-0.096450"/>
      <trkpt lat="51.513800" lon="-0.096280"/>
      <trkpt lat="51.513790" lon="-0.095500"/>
      <trkpt lat="51.513080" lon="-0.095540"/>
      <trkpt lat="51.512720" lon="-0.096180"/>
      <trkpt lat="51.511970" lon="-0.095300"/>
      <trkpt lat="51.511850" lon="-0.095570"/>
      <trkpt lat="51.511620" lon="-0.094780"/>
      <trkpt lat="51.511260" lon="-0.095400"/>
      <trkpt lat="51.510900" lon="-0.094390"/>
      <trkpt lat="51.511080" lon="-0.094140"/>
      <trkpt lat="51.511170" lon="-0.093700"/>
      <trkpt lat="51.510790" lon="-0.093520"/>
      <trkpt lat="51.511300" lon="-0.092770"/>
      <trkpt lat="51.511270" lon="-0.092440"/>
      <trkpt lat="51.510850" lon="-0.091990"/>
      <trkpt lat="51.510760" lon="-0.091060"/>
      <trkpt lat="51.510920" lon="-0.090910"/>
      <trkpt lat="51.511500" lon="-0.090380"/>
      <trkpt lat="51.511300" lon="-0.090020"/>
      <trkpt lat="51.511490" lon="-0.089450"/>
      <trkpt lat="51.510940" lon="-0.089510"/>
      <trkpt lat="51.510730" lon="-0.088840"/>
      <trkpt lat="51.511120" lon="-0.088080"/>
      <trkpt lat="51.510720" lon="-0.087660"/>
      <trkpt lat="51.511240" lon="-0.087020"/>
      <trkpt lat="51.511030" lon="-0.085560"/>
      <trkpt lat="51.511030" lon="-0.084840"/>
      <trkpt lat="51.511560" lon="-0.085130"/>
      <trkpt lat="51.511890" lon="-0.085320"/>
      <trkpt lat="51.511820" lon="-0.084710"/>
      <trkpt lat="51.511740" lon="-0.083820"/>
      <trkpt lat="51.511470" lon="-0.083760"/>
      <trkpt lat="51.510900" lon="-0.083100"/>
      <trkpt lat="51.510560" lon="-0.083870"/>
      <trkpt lat="51.510520" lon="-0.083900"/>
      <trkpt lat="51.510320" lon="-0.084010"/>
      <trkpt lat="51.509980" lon="-0.083530"/>
      <trkpt lat="51.509500" lon="-0.083800"/>
      <trkpt lat="51.509830" lon="-0.082660"/>
      <trkpt lat="51.509520" lon="-0.082370"/>
      <trkpt lat="51.508930" lon="-0.082340"/>
      <trkpt lat="51.508430" lon="-0.081310"/>
      <trkpt lat="51.508890" lon="-0.079540"/>
      <trkpt lat="51.508360" lon="-0.079330"/>
      <trkpt lat="51.508440" lon="-0.078950"/>
      <trkpt lat="51.508150" lon="-0.078670"/>
      <trkpt lat="51.509530" lon="-0.078710"/>
      <trkpt lat="51.509700" lon="-0.077920"/>
      <trkpt lat="51.509980" lon="-0.078200"/>
      <trkpt lat="51.510270" lon="-0.077780"/>
      <trkpt lat="51.510840" lon="-0.077860"/>
      <trkpt lat="51.511380" lon="-0.077610"/>
      <trkpt lat="51.511150" lon="-0.078830"/>
      <trkpt lat="51.511450" lon="-0.079310"/>
      <trkpt lat="51.511690" lon="-0.079250"/>
      <trkpt lat="51.511730" lon="-0.079590"/>
      <trkpt lat="51.511510" lon="-0.080270"/>
      <trkpt lat="51.511790" lon="-0.080990"/>
      <trkpt lat="51.512190" lon="-0.081530"/>
      <trkpt lat="51.512620" lon="-0.081100"/>
      <trkpt lat="51.512740" lon="-0.081930"/>
      <trkpt lat="51.511980" lon="-0.082930"/>
      <trkpt lat="51.511490" lon="-0.082520"/>
      <trkpt lat="51.511330" lon="-0.081440"/>
      <trkpt lat="51.510710" lon="-0.081340"/>
      <trkpt lat="51.510730" lon="-0.082020"/>
      <trkpt lat="51.510950" lon="-0.079990"/>
      <trkpt lat="51.510700" lon="-0.079320"/>
      <trkpt lat="51.510160" lon="-0.078820"/>
      <trkpt lat="51.509420" lon="-0.079880"/>
      <trkpt lat="51.509610" lon="-0.080750"/>
      <trkpt lat="51.508620" lon="-0.084390"/>
      <trkpt lat="51.508610" lon="-0.085070"/>
      <trkpt lat="51.508610" lon="-0.085410"/>
      <trkpt lat="51.508930" lon="-0.086380"/>
      <trkpt lat="51.509200" lon="-0.086450"/>
      <trkpt lat="51.509250" lon="-0.086960"/>
      <trkpt lat="51.508870" lon="-0.087020"/>
      <trkpt lat="51.509130" lon="-0.087930"/>
      <trkpt lat="51.509690" lon="-0.088550"/>
      <trkpt lat="51.509880" lon="-0.088790"/>
      <trkpt lat="51.510170" lon="-0.089260"/>
      <trkpt lat="51.509340" lon="-0.090310"/>
      <trkpt lat="51.508980" lon="-0.089710"/>
      <trkpt lat="51.509240" lon="-0.091140"/>
      <trkpt lat="51.509450" lon="-0.091730"/>
      <trkpt lat="51.509550" lon="-0.092640"/>
      <trkpt lat="51.509770" lon="-0.093370"/>
      <trkpt lat="51.508970" lon="-0.094120"/>
      <trkpt lat="51.508030" lon="-0.094730"/>
      <trkpt lat="51.507960" lon="-0.094440"/>
      <trkpt lat="51.507750" lon="-0.094620"/>
      <trkpt lat="51.507390" lon="-0.095030"/>
      <trkpt lat="51.507100" lon="-0.095270"/>
      <trkpt lat="51.506900" lon="-0.094620"/>
      <trkpt lat="51.507100" lon="-0.094530"/>
      <trkpt lat="51.507690" lon="-0.093530"/>
      <trkpt lat="51.507200" lon="-0.092840"/>
      <trkpt lat="51.506790" lon="-0.092710"/>
      <trkpt lat="51.506390" lon="-0.092850"/>
      <trkpt lat="51.506340" lon="-0.093500"/>
      <trkpt lat="51.506040" lon="-0.094790"/>
      <trkpt lat="51.504870" lon="-0.095820"/>
      <trkpt lat="51.504720" lon="-0.095110"/>
      <trkpt lat="51.504680" lon="-0.094150"/>
      <trkpt lat="51.504580" lon="-0.093390"/>
      <trkpt lat="51.504130" lon="-0.093330"/>
      <trkpt lat="51.503590" lon="-0.093770"/>
      <trkpt lat="51.504190" lon="-0.094350"/>
      <trkpt lat="51.503900" lon="-0.094850"/>
      <trkpt lat="51.503810" lon="-0.095910"/>
      <trkpt lat="51.505290" lon="-0.097140"/>
      <trkpt lat="51.505130" lon="-0.097670"/>
      <trkpt lat="51.506000" lon="-0.097570"/>
      <trkpt lat="51.505930" lon="-0.098570"/>
      <trkpt lat="51.506520" lon="-0.098600"/>
      <trkpt lat="51.506720" lon="-0.099190"/>
      <trkpt lat="51.506610" lon="-0.100390"/>
      <trkpt lat="51.506380" lon="-0.100470"/>
      <trkpt lat="51.505950" lon="-0.100630"/>
      <trkpt lat="51.505630" lon="-0.100290"/>
      <trkpt lat="51.505480" lon="-0.099670"/>
      <trkpt lat="51.504580" lon="-0.098940"/>
      <trkpt lat="51.505960" lon="-0.101470"/>
      <trkpt lat="51.506620" lon="-0.101400"/>
      <trkpt lat="51.507100" lon="-0.101090"/>
      <trkpt lat="51.507600" lon="-0.100420"/>
      <trkpt lat="51.508110" lon="-0.099880"/>
      <trkpt lat="51.507910" lon="-0.099350"/>
      <trkpt lat="51.508120" lon="-0.098760"/>
      <trkpt lat="51.508160" lon="-0.098130"/>
      <trkpt lat="51.508060" lon="-0.097740"/>
      <trkpt lat="51.508250" lon="-0.097080"/>
      <trkpt lat="51.508380" lon="-0.096700"/>
      <trkpt lat="51.508450" lon="-0.096300"/>
      <trkpt lat="51.508260" lon="-0.095790"/>
      <trkpt lat="51.507320" lon="-0.095990"/>
      <trkpt lat="51.507150" lon="-0.097340"/>
      <trkpt lat="51.506460" lon="-0.096880"/>
      <trkpt lat="51.508550" lon="-0.099970"/>
      <trkpt lat="51.508330" lon="-0.101200"/>
      <trkpt lat="51.508160" lon="-0.101310"/>
      <trkpt lat="51.508420" lon="-0.101550"/>
      <trkpt lat="51.508090" lon="-0.102140"/>
      <trkpt lat="51.508420" lon="-0.102550"/>
      <trkpt lat="51.508490" lon="-0.103730"/>
      <trkpt lat="51.508330" lon="-0.104190"/>
      <trkpt lat="51.506600" lon="-0.102290"/>
      <trkpt lat="51.510400" lon="-0.095930"/>
      <trkpt lat="51.510180" lon="-0.095170"/>
      <trkpt lat="51.510450" lon="-0.095070"/>
      <trkpt lat="51.511860" lon="-0.093980"/>
      <trkpt lat="51.512050" lon="-0.093770"/>
      <trkpt lat="51.511770" lon="-0.092880"/>
      <trkpt lat="51.511560" lon="-0.091310"/>
      <trkpt lat="51.511850" lon="-0.090780"/>
      <trkpt lat="51.511870" lon="-0.090480"/>
      <trkpt lat="51.512110" lon="-0.090160"/>
      <trkpt lat="51.513090" lon="-0.091440"/>
      <trkpt lat="51.513210" lon="-0.091830"/>
      <trkpt lat="51.512760" lon="-0.092450"/>
      <trkpt lat="51.512810" lon="-0.093000"/>
      <trkpt lat="51.512880" lon="-0.093570"/>
      <trkpt lat="51.513230" lon="-0.093640"/>
      <trkpt lat="51.513860" lon="-0.093740"/>
      <trkpt lat="51.514110" lon="-0.093530"/>
      <trkpt lat="51.514140" lon="-0.094040"/>
      <trkpt lat="51.514360" lon="-0.094780"/>
      <trkpt lat="51.514910" lon="-0.094410"/>
      <trkpt lat="51.515020" lon="-0.095490"/>
      <trkpt lat="51.515790" lon="-0.095440"/>
      <trkpt lat="51.516350" lon="-0.096300"/>
      <trkpt lat="51.516160" lon="-0.097210"/>
      <trkpt lat="51.516770" lon="-0.097030"/>
      <trkpt lat="51.516980" lon="-0.096960"/>
      <trkpt lat="51.517280" lon="-0.094100"/>
      <trkpt lat="51.517550" lon="-0.093490"/>
      <trkpt lat="51.517310" lon="-0.092590"/>
      <trkpt lat="51.517970" lon="-0.092530"/>
      <trkpt lat="51.518880" lon="-0.092810"/>
      <trkpt lat="51.518700" lon="-0.093870"/>
      <trkpt lat="51.518020" lon="-0.094180"/>
      <trkpt lat="51.516600" lon="-0.094070"/>
      <trkpt lat="51.516590" lon="-0.093270"/>
      <trkpt lat="51.516310" lon="-0.093140"/>
      <trkpt lat="51.516570" lon="-0.092440"/>
      <trkpt lat="51.517800" lon="-0.090690"/>
      <trkpt lat="51.519390" lon="-0.091720"/>
      <trkpt lat="51.519740" lon="-0.090970"/>
      <trkpt lat="51.520780" lon="-0.090760"/>
      <trkpt lat="51.520840" lon="-0.091330"/>
      <trkpt lat="51.521050" lon="-0.091690"/>
      <trkpt lat="51.520910" lon="-0.092290"/>
      <trkpt lat="51.520870" lon="-0.092680"/>
      <trkpt lat="51.520700" lon="-0.093480"/>
      <trkpt lat="51.520500" lon="-0.094620"/>
      <trkpt lat="51.520570" lon="-0.095380"/>
      <trkpt lat="51.519620" lon="-0.094340"/>
      <trkpt lat="51.520020" lon="-0.092830"/>
      <trkpt lat="51.520740" lon="-0.089170"/>
      <trkpt lat="51.520940" lon="-0.088650"/>
      <trkpt lat="51.520550" lon="-0.088600"/>
      <trkpt lat="51.520470" lon="-0.087440"/>
      <trkpt lat="51.520040" lon="-0.087310"/>
      <trkpt lat="51.520560" lon="-0.086170"/>
      <trkpt lat="51.519300" lon="-0.084670"/>
      <trkpt lat="51.519310" lon="-0.084260"/>
      <trkpt lat="51.519490" lon="-0.084270"/>
      <trkpt lat="51.519780" lon="-0.083720"/>
      <trkpt lat="51.518540" lon="-0.083180"/>
      <trkpt lat="51.518210" lon="-0.083830"/>
      <trkpt lat="51.517590" lon="-0.083710"/>
      <trkpt lat="51.517270" lon="-0.083100"/>
      <trkpt lat="51.517630" lon="-0.082670"/>
      <trkpt lat="51.517500" lon="-0.082360"/>
      <trkpt lat="51.517250" lon="-0.082030"/>
      <trkpt lat="51.517270" lon="-0.081670"/>
      <trkpt lat="51.517340" lon="-0.081320"/>
      <trkpt lat="51.517800" lon="-0.081920"/>
      <trkpt lat="51.517850" lon="-0.082190"/>
      <trkpt lat="51.517730" lon="-0.080490"/>
      <trkpt lat="51.517220" lon="-0.079630"/>
      <trkpt lat="51.516900" lon="-0.080300"/>
      <trkpt lat="51.516660" lon="-0.081350"/>
      <trkpt lat="51.516340" lon="-0.081590"/>
      <trkpt lat="51.516160" lon="-0.081290"/>
      <trkpt lat="51.516030" lon="-0.082070"/>
      <trkpt lat="51.515570" lon="-0.082120"/>
      <trkpt lat="51.516690" lon="-0.082910"/>
      <trkpt lat="51.517620" lon="-0.084710"/>
      <trkpt lat="51.518500" lon="-0.085050"/>
      <trkpt lat="51.518650" lon="-0.085780"/>
      <trkpt lat="51.518790" lon="-0.086100"/>
      <trkpt lat="51.519240" lon="-0.088900"/>
      <trkpt lat="51.516020" lon="-0.086400"/>
      <trkpt lat="51.514230" lon="-0.090840"/>
      <trkpt lat="51.514320" lon="-0.091200"/>
      <trkpt lat="51.514080" lon="-0.091380"/>
      <trkpt lat="51.513860" lon="-0.092220"/>
      <trkpt lat="51.513850" lon="-0.092850"/>
      <trkpt lat="51.513460" lon="-0.090780"/>
      <trkpt lat="51.512820" lon="-0.088230"/>
      <trkpt lat="51.512820" lon="-0.087920"/>
      <trkpt lat="51.512630" lon="-0.087210"/>
      <trkpt lat="51.512550" lon="-0.083740"/>
      <trkpt lat="51.512860" lon="-0.083620"/>
      <trkpt lat="51.513950" lon="-0.079600"/>
      <trkpt lat="51.513350" lon="-0.079270"/>
      <trkpt lat="51.513180" lon="-0.077910"/>
      <trkpt lat="51.513460" lon="-0.077670"/>
      <trkpt lat="51.513950" lon="-0.077390"/>
      <trkpt lat="51.514730" lon="-0.078900"/>
      <trkpt lat="51.515280" lon="-0.078590"/>
      <trkpt lat="51.512540" lon="-0.078680"/>
      <trkpt lat="51.512340" lon="-0.078300"/>
      <trkpt lat="51.512250" lon="-0.079240"/>
      <trkpt lat="51.509970" lon="-0.085300"/>
      <trkpt lat="51.509650" lon="-0.085480"/>
      <trkpt lat="51.510100" lon="-0.085880"/>
      <trkpt lat="51.508090" lon="-0.087830"/>
      <trkpt lat="51.506730" lon="-0.087930"/>
      <trkpt lat="51.506570" lon="-0.088700"/>
      <trkpt lat="51.506190" lon="-0.088640"/>
      <trkpt lat="51.506210" lon="-0.087960"/>
      <trkpt lat="51.506670" lon="-0.087110"/>
      <trkpt lat="51.506290" lon="-0.086690"/>
      <trkpt lat="51.505970" lon="-0.086210"/>
      <trkpt lat="51.505940" lon="-0.085730"/>
      <trkpt lat="51.505610" lon="-0.085750"/>
      <trkpt lat="51.505130" lon="-0.086100"/>
      <trkpt lat="51.504820" lon="-0.086610"/>
      <trkpt lat="51.504700" lon="-0.086810"/>
      <trkpt lat="51.505320" lon="-0.086880"/>
      <trkpt lat="51.505240" lon="-0.088070"/>
      <trkpt lat="51.505000" lon="-0.088700"/>
      <trkpt lat="51.505390" lon="-0.089050"/>
      <trkpt lat="51.505780" lon="-0.089490"/>
      <trkpt lat="51.505450" lon="-0.089920"/>
      <trkpt lat="51.504910" lon="-0.089780"/>
      <trkpt lat="51.504570" lon="-0.089290"/>
      <trkpt lat="51.504300" lon="-0.090150"/>
      <trkpt lat="51.504250" lon="-0.090940"/>
      <trkpt lat="51.503800" lon="-0.091080"/>
      <trkpt lat="51.504790" lon="-0.091170"/>
      <trkpt lat="51.504870" lon="-0.090730"/>
      <trkpt lat="51.505470" lon="-0.091140"/>
      <trkpt lat="51.506230" lon="-0.091280"/>
      <trkpt lat="51.506700" lon="-0.090430"/>
      <trkpt lat="51.506510" lon="-0.090020"/>
      <trkpt lat="51.506540" lon="-0.089420"/>
      <trkpt lat="51.506040" lon="-0.090050"/>
      <trkpt lat="51.506940" lon="-0.091100"/>
      <trkpt lat="51.507140" lon="-0.090430"/>
      <trkpt lat="51.507180" lon="-0.091940"/>
      <trkpt lat="51.506980" lon="-0.091920"/>
      <trkpt lat="51.504760" lon="-0.092660"/>
      <trkpt lat="51.503320" lon="-0.092500"/>
      <trkpt lat="51.503480" lon="-0.089060"/>
      <trkpt lat="51.503720" lon="-0.088570"/>
      <trkpt lat="51.503850" lon="-0.088150"/>
      <trkpt lat="51.503890" lon="-0.087480"/>
      <trkpt lat="51.504140" lon="-0.085380"/>
      <trkpt lat="51.504740" lon="-0.085180"/>
      <trkpt lat="51.504970" lon="-0.084360"/>
      <trkpt lat="51.505080" lon="-0.083890"/>
      <trkpt lat="51.505560" lon="-0.083890"/>
      <trkpt lat="51.506040" lon="-0.083370"/>
      <trkpt lat="51.506140" lon="-0.082830"/>
      <trkpt lat="51.505380" lon="-0.082700"/>
      <trkpt lat="51.506370" lon="-0.084180"/>
      <trkpt lat="51.506440" lon="-0.084650"/>
      <trkpt lat="51.505450" lon="-0.084900"/>
      <trkpt lat="51.506670" lon="-0.081860"/>
      <trkpt lat="51.514710" lon="-0.096770"/>
      <trkpt lat="51.520180" lon="-0.097590"/>
    </trkseg>
  </trk>

  <trk>
    <name>West End</name>
    <extensions>
      <pgr:city>London</pgr:city>
      <pgr:country>England</pgr:country>
    </extensions>
    <trkseg>
      <trkpt lat="51.510000" lon="-0.128310"/>
      <trkpt lat="51.509920" lon="-0.127950"/>
      <trkpt lat="51.509630" lon="-0.128290"/>
      <trkpt lat="51.509440" lon="-0.127250"/>
      <trkpt lat="51.509480" lon="-0.126640"/>
      <trkpt lat="51.509760" lon="-0.126860"/>
      <trkpt lat="51.510170" lon="-0.127030"/>
      <trkpt lat="51.510710" lon="-0.127450"/>
      <trkpt lat="51.510810" lon="-0.126960"/>
      <trkpt lat="51.511070" lon="-0.127160"/>
      <trkpt lat="51.511060" lon="-0.127820"/>
      <trkpt lat="51.510960" lon="-0.128240"/>
      <trkpt lat="51.510780" lon="-0.128560"/>
      <trkpt lat="51.511100" lon="-0.129540"/>
      <trkpt lat="51.511380" lon="-0.130450"/>
      <trkpt lat="51.511130" lon="-0.131350"/>
      <trkpt lat="51.510810" lon="-0.131840"/>
      <trkpt lat="51.510410" lon="-0.131340"/>
      <trkpt lat="51.510470" lon="-0.130520"/>
      <trkpt lat="51.510270" lon="-0.130230"/>
      <trkpt lat="51.510470" lon="-0.130060"/>
      <trkpt lat="51.509810" lon="-0.130070"/>
      <trkpt lat="51.509520" lon="-0.129570"/>
      <trkpt lat="51.509870" lon="-0.129330"/>
      <trkpt lat="51.508870" lon="-0.129730"/>
      <trkpt lat="51.508360" lon="-0.129580"/>
      <trkpt lat="51.508470" lon="-0.128900"/>
      <trkpt lat="51.508200" lon="-0.128730"/>
      <trkpt lat="51.508110" lon="-0.128080"/>
      <trkpt lat="51.508430" lon="-0.127930"/>
      <trkpt lat="51.508520" lon="-0.128290"/>
      <trkpt lat="51.507780" lon="-0.127940"/>
      <trkpt lat="51.507580" lon="-0.128350"/>
      <trkpt lat="51.507340" lon="-0.127690"/>
      <trkpt lat="51.506990" lon="-0.127930"/>
      <trkpt lat="51.506790" lon="-0.127550"/>
      <trkpt lat="51.506770" lon="-0.128400"/>
      <trkpt lat="51.506410" lon="-0.128730"/>
      <trkpt lat="51.506330" lon="-0.129350"/>
      <trkpt lat="51.506790" lon="-0.129380"/>
      <trkpt lat="51.506830" lon="-0.129450"/>
      <trkpt lat="51.507210" lon="-0.129000"/>
      <trkpt lat="51.507500" lon="-0.129410"/>
      <trkpt lat="51.507310" lon="-0.130040"/>
      <trkpt lat="51.507570" lon="-0.130690"/>
      <trkpt lat="51.507790" lon="-0.130540"/>
      <trkpt lat="51.508220" lon="-0.131680"/>
      <trkpt lat="51.508480" lon="-0.131540"/>
      <trkpt lat="51.508400" lon="-0.132250"/>
      <trkpt lat="51.509010" lon="-0.132060"/>
      <trkpt lat="51.509580" lon="-0.131760"/>
      <trkpt lat="51.509790" lon="-0.131910"/>
      <trkpt lat="51.510140" lon="-0.132290"/>
      <trkpt lat="51.510360" lon="-0.132340"/>
      <trkpt lat="51.509960" lon="-0.133490"/>
      <trkpt lat="51.510150" lon="-0.134170"/>
      <trkpt lat="51.509890" lon="-0.134680"/>
      <trkpt lat="51.509390" lon="-0.134210"/>
      <trkpt lat="51.509260" lon="-0.134550"/>
      <trkpt lat="51.508980" lon="-0.135220"/>
      <trkpt lat="51.509470" lon="-0.135760"/>
      <trkpt lat="51.509290" lon="-0.136420"/>
      <trkpt lat="51.509980" lon="-0.136300"/>
      <trkpt lat="51.510330" lon="-0.136590"/>
      <trkpt lat="51.510530" lon="-0.137150"/>
      <trkpt lat="51.510100" lon="-0.137390"/>
      <trkpt lat="51.510410" lon="-0.138500"/>
      <trkpt lat="51.510280" lon="-0.139010"/>
      <trkpt lat="51.509980" lon="-0.139870"/>
      <trkpt lat="51.509840" lon="-0.140310"/>
      <trkpt lat="51.509640" lon="-0.140910"/>
      <trkpt lat="51.509190" lon="-0.141260"/>
      <trkpt lat="51.508960" lon="-0.141810"/>
      <trkpt lat="51.509170" lon="-0.141950"/>
      <trkpt lat="51.510010" lon="-0.142170"/>
      <trkpt lat="51.510390" lon="-0.142600"/>
      <trkpt lat="51.511800" lon="-0.141200"/>
      <trkpt lat="51.512350" lon="-0.140720"/>
      <trkpt lat="51.512660" lon="-0.140150"/>
      <trkpt lat="51.513010" lon="-0.140990"/>
      <trkpt lat="51.512760" lon="-0.141360"/>
      <trkpt lat="51.512410" lon="-0.141860"/>
      <trkpt lat="51.511560" lon="-0.140240"/>
      <trkpt lat="51.511060" lon="-0.139670"/>
      <trkpt lat="51.510910" lon="-0.138930"/>
      <trkpt lat="51.510990" lon="-0.138590"/>
      <trkpt lat="51.511460" lon="-0.139050"/>
      <trkpt lat="51.512020" lon="-0.139520"/>
      <trkpt lat="51.512630" lon="-0.138810"/>
      <trkpt lat="51.512760" lon="-0.138180"/>
      <trkpt lat="51.512300" lon="-0.137860"/>
      <trkpt lat="51.511850" lon="-0.138040"/>
      <trkpt lat="51.511830" lon="-0.137540"/>
      <trkpt lat="51.511640" lon="-0.137210"/>
      <trkpt lat="51.511320" lon="-0.137510"/>
      <trkpt lat="51.511180" lon="-0.136290"/>
      <trkpt lat="51.510730" lon="-0.135510"/>
      <trkpt lat="51.511030" lon="-0.134810"/>
      <trkpt lat="51.511130" lon="-0.134200"/>
      <trkpt lat="51.510860" lon="-0.133660"/>
      <trkpt lat="51.511390" lon="-0.133310"/>
      <trkpt lat="51.511720" lon="-0.133640"/>
      <trkpt lat="51.512110" lon="-0.132890"/>
      <trkpt lat="51.511810" lon="-0.132570"/>
      <trkpt lat="51.511450" lon="-0.132280"/>
      <trkpt lat="51.511500" lon="-0.131930"/>
      <trkpt lat="51.511940" lon="-0.131740"/>
      <trkpt lat="51.512070" lon="-0.131350"/>
      <trkpt lat="51.512580" lon="-0.131620"/>
      <trkpt lat="51.512840" lon="-0.132280"/>
      <trkpt lat="51.512540" lon="-0.132890"/>
      <trkpt lat="51.513300" lon="-0.133040"/>
      <trkpt lat="51.513400" lon="-0.132510"/>
      <trkpt lat="51.513450" lon="-0.131520"/>
      <trkpt lat="51.513530" lon="-0.131400"/>
      <trkpt lat="51.513750" lon="-0.131000"/>
      <trkpt lat="51.514070" lon="-0.130610"/>
      <trkpt lat="51.514320" lon="-0.129840"/>
      <trkpt lat="51.514460" lon="-0.129640"/>
      <trkpt lat="51.513980" lon="-0.129170"/>
      <trkpt lat="51.513510" lon="-0.129160"/>
      <trkpt lat="51.513420" lon="-0.128740"/>
      <trkpt lat="51.513220" lon="-0.129520"/>
      <trkpt lat="51.513250" lon="-0.130270"/>
      <trkpt lat="51.513710" lon="-0.129840"/>
      <trkpt lat="51.512790" lon="-0.129150"/>
      <trkpt lat="51.513020" lon="-0.128180"/>
      <trkpt lat="51.512770" lon="-0.127910"/>
      <trkpt lat="51.512670" lon="-0.127680"/>
      <trkpt lat="51.513180" lon="-0.127080"/>
      <trkpt lat="51.513530" lon="-0.126620"/>
      <trkpt lat="51.513730" lon="-0.127000"/>
      <trkpt lat="51.513830" lon="-0.126060"/>
      <trkpt lat="51.513490" lon="-0.125670"/>
      <trkpt lat="51.513320" lon="-0.125310"/>
      <trkpt lat="51.512780" lon="-0.124950"/>
      <trkpt lat="51.512920" lon="-0.124570"/>
      <trkpt lat="51.513010" lon="-0.124150"/>
      <trkpt lat="51.513140" lon="-0.124220"/>
      <trkpt lat="51.512790" lon="-0.123840"/>
      <trkpt lat="51.513090" lon="-0.123310"/>
      <trkpt lat="51.513040" lon="-0.122070"/>
      <trkpt lat="51.512680" lon="-0.121440"/>
      <trkpt lat="51.512350" lon="-0.121960"/>
      <trkpt lat="51.512370" lon="-0.122610"/>
      <trkpt lat="51.511950" lon="-0.122800"/>
      <trkpt lat="51.511460" lon="-0.122570"/>
      <trkpt lat="51.511220" lon="-0.122440"/>
      <trkpt lat="51.510970" lon="-0.122430"/>
      <trkpt lat="51.510790" lon="-0.121780"/>
      <trkpt lat="51.510310" lon="-0.122150"/>
      <trkpt lat="51.510020" lon="-0.122830"/>
      <trkpt lat="51.509460" lon="-0.122830"/>
      <trkpt lat="51.509300" lon="-0.122450"/>
      <trkpt lat="51.508990" lon="-0.122910"/>
      <trkpt lat="51.508980" lon="-0.123380"/>
      <trkpt lat="51.509480" lon="-0.123950"/>
      <trkpt lat="51.510230" lon="-0.123950"/>
      <trkpt lat="51.510450" lon="-0.123610"/>
      <trkpt lat="51.510730" lon="-0.123200"/>
      <trkpt lat="51.510870" lon="-0.124320"/>
      <trkpt lat="51.511570" lon="-0.124730"/>
      <trkpt lat="51.511240" lon="-0.125450"/>
      <trkpt lat="51.511650" lon="-0.125670"/>
      <trkpt lat="51.511640" lon="-0.126290"/>
      <trkpt lat="51.512040" lon="-0.126120"/>
      <trkpt lat="51.512350" lon="-0.125960"/>
      <trkpt lat="51.512460" lon="-0.125610"/>
      <trkpt lat="51.512110" lon="-0.124420"/>
      <trkpt lat="51.512010" lon="-0.123640"/>
      <trkpt lat="51.511640" lon="-0.123740"/>
      <trkpt lat="51.511550" lon="-0.121740"/>
      <trkpt lat="51.511980" lon="-0.121660"/>
      <trkpt lat="51.512220" lon="-0.120910"/>
      <trkpt lat="51.512050" lon="-0.120300"/>
      <trkpt lat="51.512440" lon="-0.120280"/>
      <trkpt lat="51.512640" lon="-0.120400"/>
      <trkpt lat="51.513130" lon="-0.120690"/>
      <trkpt lat="51.513830" lon="-0.120570"/>
      <trkpt lat="51.513770" lon="-0.120080"/>
      <trkpt lat="51.513550" lon="-0.119650"/>
      <trkpt lat="51.513170" lon="-0.119130"/>
      <trkpt lat="51.513100" lon="-0.118030"/>
      <trkpt lat="51.512950" lon="-0.117310"/>
      <trkpt lat="51.513450" lon="-0.116800"/>
      <trkpt lat="51.513610" lon="-0.117800"/>
      <trkpt lat="51.514270" lon="-0.117590"/>
      <trkpt lat="51.514410" lon="-0.117380"/>
      <trkpt lat="51.514350" lon="-0.118140"/>
      <trkpt lat="51.514100" lon="-0.118870"/>
      <trkpt lat="51.514690" lon="-0.119160"/>
      <trkpt lat="51.515040" lon="-0.118530"/>
      <trkpt lat="51.515340" lon="-0.119170"/>
      <trkpt lat="51.515440" lon="-0.119760"/>
      <trkpt lat="51.515260" lon="-0.120610"/>
      <trkpt lat="51.514870" lon="-0.120120"/>
      <trkpt lat="51.514910" lon="-0.121660"/>
      <trkpt lat="51.515360" lon="-0.121450"/>
      <trkpt lat="51.515040" lon="-0.122640"/>
      <trkpt lat="51.514430" lon="-0.122140"/>
      <trkpt lat="51.514030" lon="-0.122710"/>
      <trkpt lat="51.514150" lon="-0.124230"/>
      <trkpt lat="51.514530" lon="-0.124730"/>
      <trkpt lat="51.514790" lon="-0.125210"/>
      <trkpt lat="51.514300" lon="-0.126080"/>
      <trkpt lat="51.514490" lon="-0.126490"/>
      <trkpt lat="51.515010" lon="-0.126560"/>
      <trkpt lat="51.515080" lon="-0.127100"/>
      <trkpt lat="51.515660" lon="-0.127270"/>
      <trkpt lat="51.515650" lon="-0.128040"/>
      <trkpt lat="51.515690" lon="-0.128590"/>
      <trkpt lat="51.515280" lon="-0.128600"/>
      <trkpt lat="51.515120" lon="-0.129570"/>
      <trkpt lat="51.514860" lon="-0.130440"/>
      <trkpt lat="51.514670" lon="-0.130740"/>
      <trkpt lat="51.514930" lon="-0.131450"/>
      <trkpt lat="51.515400" lon="-0.131590"/>
      <trkpt lat="51.515680" lon="-0.132000"/>
      <trkpt lat="51.515890" lon="-0.132720"/>
      <trkpt lat="51.515540" lon="-0.132960"/>
      <trkpt lat="51.515120" lon="-0.132180"/>
      <trkpt lat="51.514710" lon="-0.132470"/>
      <trkpt lat="51.514180" lon="-0.132800"/>
      <trkpt lat="51.514090" lon="-0.133600"/>
      <trkpt lat="51.513990" lon="-0.134310"/>
      <trkpt lat="51.513940" lon="-0.134760"/>
      <trkpt lat="51.514420" lon="-0.134820"/>
      <trkpt lat="51.514120" lon="-0.135490"/>
      <trkpt lat="51.513420" lon="-0.135130"/>
      <trkpt lat="51.513500" lon="-0.136200"/>
      <trkpt lat="51.513670" lon="-0.136440"/>
      <trkpt lat="51.513260" lon="-0.137000"/>
      <trkpt lat="51.513260" lon="-0.137750"/>
      <trkpt lat="51.513580" lon="-0.138070"/>
      <trkpt lat="51.513860" lon="-0.138920"/>
      <trkpt lat="51.514360" lon="-0.139170"/>
      <trkpt lat="51.514420" lon="-0.138240"/>
      <trkpt lat="51.514910" lon="-0.137350"/>
      <trkpt lat="51.515100" lon="-0.137330"/>
      <trkpt lat="51.514800" lon="-0.137030"/>
      <trkpt lat="51.514980" lon="-0.136430"/>
      <trkpt lat="51.515170" lon="-0.135780"/>
      <trkpt lat="51.514930" lon="-0.135230"/>
      <trkpt lat="51.515480" lon="-0.134760"/>
      <trkpt lat="51.515110" lon="-0.134270"/>
      <trkpt lat="51.514870" lon="-0.133900"/>
      <trkpt lat="51.515870" lon="-0.135380"/>
      <trkpt lat="51.516070" lon="-0.135370"/>
      <trkpt lat="51.516310" lon="-0.136300"/>
      <trkpt lat="51.516040" lon="-0.136710"/>
      <trkpt lat="51.515910" lon="-0.136430"/>
      <trkpt lat="51.515560" lon="-0.136680"/>
      <trkpt lat="51.516500" lon="-0.137320"/>
      <trkpt lat="51.515730" lon="-0.138610"/>
      <trkpt lat="51.515470" lon="-0.138910"/>
      <trkpt lat="51.513930" lon="-0.140220"/>
      <trkpt lat="51.513700" lon="-0.140690"/>
      <trkpt lat="51.513510" lon="-0.140370"/>
      <trkpt lat="51.513290" lon="-0.140100"/>
      <trkpt lat="51.513930" lon="-0.141210"/>
      <trkpt lat="51.512670" lon="-0.136700"/>
      <trkpt lat="51.512800" lon="-0.136430"/>
      <trkpt lat="51.512440" lon="-0.136370"/>
      <trkpt lat="51.511850" lon="-0.135810"/>
      <trkpt lat="51.511550" lon="-0.135310"/>
      <trkpt lat="51.511900" lon="-0.134960"/>
      <trkpt lat="51.512230" lon="-0.135250"/>
      <trkpt lat="51.512820" lon="-0.134210"/>
      <trkpt lat="51.513330" lon="-0.133860"/>
      <trkpt lat="51.513990" lon="-0.131880"/>
      <trkpt lat="51.512850" lon="-0.130890"/>
      <trkpt lat="51.512620" lon="-0.130530"/>
      <trkpt lat="51.512120" lon="-0.130200"/>
      <trkpt lat="51.512110" lon="-0.129560"/>
      <trkpt lat="51.511800" lon="-0.127390"/>
      <trkpt lat="51.514250" lon="-0.127980"/>
      <trkpt lat="51.514310" lon="-0.127670"/>
      <trkpt lat="51.514600" lon="-0.128380"/>
      <trkpt lat="51.515460" lon="-0.126180"/>
      <trkpt lat="51.515910" lon="-0.126390"/>
      <trkpt lat="51.515930" lon="-0.126020"/>
      <trkpt lat="51.516520" lon="-0.126730"/>
      <trkpt lat="51.516270" lon="-0.127690"/>
      <trkpt lat="51.516660" lon="-0.127960"/>
      <trkpt lat="51.516420" lon="-0.129050"/>
      <trkpt lat="51.516150" lon="-0.129740"/>
      <trkpt lat="51.516670" lon="-0.130260"/>
      <trkpt lat="51.516470" lon="-0.130790"/>
      <trkpt lat="51.516160" lon="-0.130910"/>
      <trkpt lat="51.516440" lon="-0.131330"/>
      <trkpt lat="51.516930" lon="-0.130850"/>
      <trkpt lat="51.517200" lon="-0.130340"/>
      <trkpt lat="51.517560" lon="-0.128790"/>
      <trkpt lat="51.517650" lon="-0.128530"/>
      <trkpt lat="51.517820" lon="-0.127930"/>
      <trkpt lat="51.517890" lon="-0.127340"/>
      <trkpt lat="51.517970" lon="-0.126530"/>
      <trkpt lat="51.517710" lon="-0.125770"/>
      <trkpt lat="51.518000" lon="-0.125110"/>
      <trkpt lat="51.517570" lon="-0.124610"/>
      <trkpt lat="51.517350" lon="-0.125080"/>
      <trkpt lat="51.516900" lon="-0.125850"/>
      <trkpt lat="51.516570" lon="-0.125430"/>
      <trkpt lat="51.516340" lon="-0.124720"/>
      <trkpt lat="51.516120" lon="-0.124200"/>
      <trkpt lat="51.516470" lon="-0.123940"/>
      <trkpt lat="51.516230" lon="-0.123000"/>
      <trkpt lat="51.516650" lon="-0.122480"/>
      <trkpt lat="51.517050" lon="-0.122490"/>
      <trkpt lat="51.517420" lon="-0.123170"/>
      <trkpt lat="51.517650" lon="-0.123440"/>
      <trkpt lat="51.518230" lon="-0.124090"/>
      <trkpt lat="51.518340" lon="-0.123070"/>
      <trkpt lat="51.517880" lon="-0.121860"/>
      <trkpt lat="51.517310" lon="-0.121540"/>
      <trkpt lat="51.517030" lon="-0.120370"/>
      <trkpt lat="51.516830" lon="-0.119730"/>
      <trkpt lat="51.516630" lon="-0.119610"/>
      <trkpt lat="51.516240" lon="-0.119320"/>
      <trkpt lat="51.516130" lon="-0.118390"/>
      <trkpt lat="51.515830" lon="-0.118170"/>
      <trkpt lat="51.515450" lon="-0.117460"/>
      <trkpt lat="51.515520" lon="-0.117090"/>
      <trkpt lat="51.514560" lon="-0.116190"/>
      <trkpt lat="51.514290" lon="-0.116620"/>
      <trkpt lat="51.514140" lon="-0.115790"/>
      <trkpt lat="51.513280" lon="-0.115450"/>
      <trkpt lat="51.512810" lon="-0.114660"/>
      <trkpt lat="51.512240" lon="-0.115900"/>
      <trkpt lat="51.512060" lon="-0.116370"/>
      <trkpt lat="51.512110" lon="-0.117040"/>
      <trkpt lat="51.512130" lon="-0.117950"/>
      <trkpt lat="51.512310" lon="-0.118370"/>
      <trkpt lat="51.512530" lon="-0.118390"/>
      <trkpt lat="51.512310" lon="-0.118980"/>
      <trkpt lat="51.512330" lon="-0.119010"/>
      <trkpt lat="51.511730" lon="-0.119210"/>
      <trkpt lat="51.511660" lon="-0.118770"/>
      <trkpt lat="51.511400" lon="-0.119500"/>
      <trkpt lat="51.511250" lon="-0.119670"/>
      <trkpt lat="51.510650" lon="-0.119280"/>
      <trkpt lat="51.510390" lon="-0.119780"/>
      <trkpt lat="51.510010" lon="-0.119720"/>
      <trkpt lat="51.509760" lon="-0.119070"/>
      <trkpt lat="51.509890" lon="-0.118870"/>
      <trkpt lat="51.509580" lon="-0.118520"/>
      <trkpt lat="51.509540" lon="-0.119510"/>
      <trkpt lat="51.509360" lon="-0.120070"/>
      <trkpt lat="51.509080" lon="-0.120530"/>
      <trkpt lat="51.508600" lon="-0.120240"/>
      <trkpt lat="51.508410" lon="-0.120430"/>
      <trkpt lat="51.508250" lon="-0.120780"/>
      <trkpt lat="51.508210" lon="-0.121220"/>
      <trkpt lat="51.508430" lon="-0.121140"/>
      <trkpt lat="51.508570" lon="-0.122290"/>
      <trkpt lat="51.508120" lon="-0.123080"/>
      <trkpt lat="51.508170" lon="-0.123840"/>
      <trkpt lat="51.507570" lon="-0.124670"/>
      <trkpt lat="51.507240" lon="-0.125280"/>
      <trkpt lat="51.507160" lon="-0.125660"/>
      <trkpt lat="51.506470" lon="-0.125650"/>
      <trkpt lat="51.505840" lon="-0.126090"/>
      <trkpt lat="51.506110" lon="-0.126850"/>
      <trkpt lat="51.506260" lon="-0.127280"/>
      <trkpt lat="51.505370" lon="-0.128220"/>
      <trkpt lat="51.505200" lon="-0.127610"/>
      <trkpt lat="51.504820" lon="-0.127580"/>
      <trkpt lat="51.504170" lon="-0.127270"/>
      <trkpt lat="51.503860" lon="-0.127850"/>
      <trkpt lat="51.503550" lon="-0.128650"/>
      <trkpt lat="51.502870" lon="-0.129130"/>
      <trkpt lat="51.502980" lon="-0.129790"/>
      <trkpt lat="51.502650" lon="-0.130020"/>
      <trkpt lat="51.502350" lon="-0.129550"/>
      <trkpt lat="51.502390" lon="-0.128600"/>
      <trkpt lat="51.502060" lon="-0.128210"/>
      <trkpt lat="51.501220" lon="-0.127910"/>
      <trkpt lat="51.501060" lon="-0.128490"/>
      <trkpt lat="51.501170" lon="-0.129030"/>
      <trkpt lat="51.501420" lon="-0.129750"/>
      <trkpt lat="51.501120" lon="-0.130110"/>
      <trkpt lat="51.501340" lon="-0.130730"/>
      <trkpt lat="51.502090" lon="-0.130760"/>
      <trkpt lat="51.502270" lon="-0.132060"/>
      <trkpt lat="51.503270" lon="-0.132730"/>
      <trkpt lat="51.503130" lon="-0.134130"/>
      <trkpt lat="51.503720" lon="-0.134880"/>
      <trkpt lat="51.504130" lon="-0.134610"/>
      <trkpt lat="51.503550" lon="-0.135890"/>
      <trkpt lat="51.504020" lon="-0.136460"/>
      <trkpt lat="51.504640" lon="-0.136780"/>
      <trkpt lat="51.505090" lon="-0.136940"/>
      <trkpt lat="51.505480" lon="-0.137640"/>
      <trkpt lat="51.505570" lon="-0.138210"/>
      <trkpt lat="51.504970" lon="-0.137870"/>
      <trkpt lat="51.504950" lon="-0.138750"/>
      <trkpt lat="51.504550" lon="-0.139600"/>
      <trkpt lat="51.505510" lon="-0.140010"/>
      <trkpt lat="51.505720" lon="-0.140520"/>
      <trkpt lat="51.506160" lon="-0.140300"/>
      <trkpt lat="51.506420" lon="-0.140440"/>
      <trkpt lat="51.507020" lon="-0.140980"/>
      <trkpt lat="51.507550" lon="-0.141510"/>
      <trkpt lat="51.507790" lon="-0.140810"/>
      <trkpt lat="51.507610" lon="-0.140620"/>
      <trkpt lat="51.508390" lon="-0.140430"/>
      <trkpt lat="51.508290" lon="-0.139560"/>
      <trkpt lat="51.508690" lon="-0.139640"/>
      <trkpt lat="51.508620" lon="-0.139150"/>
      <trkpt lat="51.508600" lon="-0.138810"/>
      <trkpt lat="51.508370" lon="-0.138450"/>
      <trkpt lat="51.507760" lon="-0.138860"/>
      <trkpt lat="51.507620" lon="-0.137990"/>
      <trkpt lat="51.508090" lon="-0.137410"/>
      <trkpt lat="51.508380" lon="-0.137030"/>
      <trkpt lat="51.508090" lon="-0.136600"/>
      <trkpt lat="51.507790" lon="-0.135930"/>
      <trkpt lat="51.507580" lon="-0.136070"/>
      <trkpt lat="51.507480" lon="-0.136520"/>
      <trkpt lat="51.507470" lon="-0.135070"/>
      <trkpt lat="51.507770" lon="-0.135100"/>
      <trkpt lat="51.507970" lon="-0.134900"/>
      <trkpt lat="51.507330" lon="-0.134370"/>
      <trkpt lat="51.506780" lon="-0.134920"/>
      <trkpt lat="51.506650" lon="-0.135500"/>
      <trkpt lat="51.506110" lon="-0.135650"/>
      <trkpt lat="51.505820" lon="-0.135920"/>
      <trkpt lat="51.505650" lon="-0.136330"/>
      <trkpt lat="51.506420" lon="-0.136980"/>
      <trkpt lat="51.506340" lon="-0.137520"/>
      <trkpt lat="51.506930" lon="-0.139100"/>
      <trkpt lat="51.505840" lon="-0.139430"/>
      <trkpt lat="51.504380" lon="-0.137410"/>
      <trkpt lat="51.502950" lon="-0.135490"/>
      <trkpt lat="51.502360" lon="-0.135270"/>
      <trkpt lat="51.503760" lon="-0.131550"/>
      <trkpt lat="51.504040" lon="-0.131590"/>
      <trkpt lat="51.504290" lon="-0.130710"/>
      <trkpt lat="51.504240" lon="-0.130160"/>
      <trkpt lat="51.504390" lon="-0.129730"/>
      <trkpt lat="51.504280" lon="-0.129360"/>
      <trkpt lat="51.504650" lon="-0.129580"/>
      <trkpt lat="51.505270" lon="-0.129080"/>
      <trkpt lat="51.505580" lon="-0.129560"/>
      <trkpt lat="51.505760" lon="-0.130160"/>
      <trkpt lat="51.505970" lon="-0.131050"/>
      <trkpt lat="51.505580" lon="-0.131090"/>
      <trkpt lat="51.506300" lon="-0.131740"/>
      <trkpt lat="51.506710" lon="-0.131840"/>
      <trkpt lat="51.506800" lon="-0.132540"/>
      <trkpt lat="51.506870" lon="-0.132800"/>
      <trkpt lat="51.506950" lon="-0.133370"/>
      <trkpt lat="51.507330" lon="-0.132720"/>
      <trkpt lat="51.507400" lon="-0.132090"/>
      <trkpt lat="51.507750" lon="-0.132810"/>
      <trkpt lat="51.507590" lon="-0.133220"/>
      <trkpt lat="51.508070" lon="-0.133520"/>
      <trkpt lat="51.508250" lon="-0.133690"/>
      <trkpt lat="51.508510" lon="-0.133920"/>
      <trkpt lat="51.508900" lon="-0.131000"/>
      <trkpt lat="51.508650" lon="-0.130630"/>
      <trkpt lat="51.509120" lon="-0.130550"/>
      <trkpt lat="51.509830" lon="-0.131180"/>
      <trkpt lat="51.508730" lon="-0.126990"/>
      <trkpt lat="51.508790" lon="-0.126300"/>
      <trkpt lat="51.508660" lon="-0.125960"/>
      <trkpt lat="51.508370" lon="-0.125280"/>
      <trkpt lat="51.508760" lon="-0.124780"/>
      <trkpt lat="51.509390" lon="-0.126010"/>
      <trkpt lat="51.508140" lon="-0.127000"/>
      <trkpt lat="51.507930" lon="-0.127420"/>
      <trkpt lat="51.507700" lon="-0.126690"/>
      <trkpt lat="51.506150" lon="-0.124450"/>
      <trkpt lat="51.505680" lon="-0.124320"/>
      <trkpt lat="51.505550" lon="-0.123670"/>
      <trkpt lat="51.505690" lon="-0.123390"/>
      <trkpt lat="51.505290" lon="-0.123230"/>
      <trkpt lat="51.505050" lon="-0.123600"/>
      <trkpt lat="51.504870" lon="-0.124980"/>
      <trkpt lat="51.505100" lon="-0.125030"/>
      <trkpt lat="51.504790" lon="-0.126200"/>
      <trkpt lat="51.505250" lon="-0.126620"/>
      <trkpt lat="51.504200" lon="-0.126410"/>
      <trkpt lat="51.503870" lon="-0.126000"/>
      <trkpt lat="51.503310" lon="-0.125750"/>
      <trkpt lat="51.503180" lon="-0.125050"/>
      <trkpt lat="51.503400" lon="-0.124290"/>
      <trkpt lat="51.503230" lon="-0.123910"/>
      <trkpt lat="51.503170" lon="-0.124000"/>
      <trkpt lat="51.502920" lon="-0.124060"/>
      <trkpt lat="51.502980" lon="-0.123550"/>
      <trkpt lat="51.503990" lon="-0.123090"/>
      <trkpt lat="51.504040" lon="-0.123910"/>
      <trkpt lat="51.503280" lon="-0.126480"/>
      <trkpt lat="51.503000" lon="-0.126370"/>
      <trkpt lat="51.502640" lon="-0.125940"/>
      <trkpt lat="51.502030" lon="-0.125870"/>
      <trkpt lat="51.502100" lon="-0.126540"/>
      <trkpt lat="51.501560" lon="-0.126440"/>
      <trkpt lat="51.501230" lon="-0.127060"/>
      <trkpt lat="51.501930" lon="-0.124380"/>
      <trkpt lat="51.501540" lon="-0.123730"/>
      <trkpt lat="51.502940" lon="-0.119430"/>
      <trkpt lat="51.503330" lon="-0.119410"/>
      <trkpt lat="51.503400" lon="-0.118670"/>
      <trkpt lat="51.504010" lon="-0.118210"/>
      <trkpt lat="51.504410" lon="-0.119060"/>
      <trkpt lat="51.504650" lon="-0.118770"/>
      <trkpt lat="51.504770" lon="-0.118130"/>
      <trkpt lat="51.505190" lon="-0.118060"/>
      <trkpt lat="51.505360" lon="-0.118320"/>
      <trkpt lat="51.505940" lon="-0.117640"/>
      <trkpt lat="51.505960" lon="-0.117030"/>
      <trkpt lat="51.506430" lon="-0.117080"/>
      <trkpt lat="51.506450" lon="-0.116740"/>
      <trkpt lat="51.506320" lon="-0.116540"/>
      <trkpt lat="51.506380" lon="-0.117460"/>
      <trkpt lat="51.506970" lon="-0.116410"/>
      <trkpt lat="51.507070" lon="-0.116130"/>
      <trkpt lat="51.506890" lon="-0.115710"/>
      <trkpt lat="51.507330" lon="-0.115270"/>
      <trkpt lat="51.507510" lon="-0.114700"/>
      <trkpt lat="51.506440" lon="-0.115180"/>
      <trkpt lat="51.505980" lon="-0.115700"/>
      <trkpt lat="51.505300" lon="-0.116460"/>
      <trkpt lat="51.505420" lon="-0.117060"/>
      <trkpt lat="51.504640" lon="-0.116770"/>
      <trkpt lat="51.505760" lon="-0.119770"/>
      <trkpt lat="51.505980" lon="-0.120640"/>
      <trkpt lat="51.506310" lon="-0.120090"/>
      <trkpt lat="51.506390" lon="-0.121910"/>
      <trkpt lat="51.506420" lon="-0.122250"/>
      <trkpt lat="51.506490" lon="-0.123200"/>
      <trkpt lat="51.506800" lon="-0.123560"/>
      <trkpt lat="51.507270" lon="-0.122710"/>
      <trkpt lat="51.507190" lon="-0.122110"/>
      <trkpt lat="51.507150" lon="-0.121640"/>
      <trkpt lat="51.507900" lon="-0.122230"/>
      <trkpt lat="51.509600" lon="-0.121310"/>
      <trkpt lat="51.510220" lon="-0.121180"/>
      <trkpt lat="51.510270" lon="-0.120810"/>
      <trkpt lat="51.510720" lon="-0.120480"/>
      <trkpt lat="51.511390" lon="-0.120830"/>
      <trkpt lat="51.510640" lon="-0.118300"/>
      <trkpt lat="51.510950" lon="-0.117530"/>
      <trkpt lat="51.511070" lon="-0.117140"/>
      <trkpt lat="51.510720" lon="-0.116960"/>
      <trkpt lat="51.510590" lon="-0.116690"/>
      <trkpt lat="51.511260" lon="-0.116180"/>
      <trkpt lat="51.511620" lon="-0.115380"/>
      <trkpt lat="51.511020" lon="-0.114640"/>
      <trkpt lat="51.510580" lon="-0.114690"/>
      <trkpt lat="51.510490" lon="-0.115170"/>
      <trkpt lat="51.510830" lon="-0.115280"/>
      <trkpt lat="51.511460" lon="-0.117510"/>
      <trkpt lat="51.509920" lon="-0.117460"/>
      <trkpt lat="51.509150" lon="-0.117260"/>
      <trkpt lat="51.508330" lon="-0.116500"/>
      <trkpt lat="51.505790" lon="-0.122600"/>
      <trkpt lat="51.505880" lon="-0.132390"/>
      <trkpt lat="51.505980" lon="-0.133280"/>
      <trkpt lat="51.505670" lon="-0.133300"/>
      <trkpt lat="51.505300" lon="-0.133780"/>
      <trkpt lat="51.505070" lon="-0.133720"/>
      <trkpt lat="51.506400" lon="-0.134220"/>
      <trkpt lat="51.506250" lon="-0.134870"/>
      <trkpt lat="51.508990" lon="-0.137660"/>
      <trkpt lat="51.509610" lon="-0.138520"/>
      <trkpt lat="51.509020" lon="-0.139350"/>
      <trkpt lat="51.509230" lon="-0.140000"/>
      <trkpt lat="51.508380" lon="-0.141410"/>
      <trkpt lat="51.516780" lon="-0.133490"/>
      <trkpt lat="51.517180" lon="-0.133820"/>
      <trkpt lat="51.517290" lon="-0.133120"/>
      <trkpt lat="51.517680" lon="-0.133440"/>
      <trkpt lat="51.517700" lon="-0.134130"/>
      <trkpt lat="51.517970" lon="-0.134690"/>
      <trkpt lat="51.517730" lon="-0.135160"/>
      <trkpt lat="51.517430" lon="-0.135500"/>
      <trkpt lat="51.517680" lon="-0.132520"/>
      <trkpt lat="51.516760" lon="-0.132100"/>
      <trkpt lat="51.516530" lon="-0.132680"/>
      <trkpt lat="51.518370" lon="-0.130850"/>
      <trkpt lat="51.518540" lon="-0.130380"/>
      <trkpt lat="51.518300" lon="-0.129860"/>
      <trkpt lat="51.518270" lon="-0.127970"/>
      <trkpt lat="51.518520" lon="-0.127220"/>
      <trkpt lat="51.518580" lon="-0.126330"/>
      <trkpt lat="51.518580" lon="-0.125930"/>
      <trkpt lat="51.518990" lon="-0.128220"/>
      <trkpt lat="51.516430" lon="-0.121150"/>
      <trkpt lat="51.516270" lon="-0.120950"/>
      <trkpt lat="51.516020" lon="-0.120480"/>
      <trkpt lat="51.513890" lon="-0.125060"/>
    </trkseg>
  </trk>
</gpx>
